COSMOS 2508             
1 40921U 15050B   23335.17521486  .00000039  00000+0  21292-3 0  9997
2 40921  82.4855 296.8641 0012672 249.7162 110.2556 12.42888583371454
COSMOS 2509             
1 40922U 15050C   23334.79900511  .00000032  00000+0  16374-3 0  9993
2 40922  82.4855 297.1791 0014821 265.6203  94.3184 12.42888814371429
LAPAN-A2                
1 40931U 15052B   23334.56807149  .00001891  00000+0  17038-3 0  9995
2 40931   6.0017 338.6299 0012591 133.8586 226.2583 14.77501334441995
LQSAT                   
1 40958U 15057A   23335.09724123  .00001310  00000+0  20477-3 0  9995
2 40958  97.6859   0.6369 0018823  48.1063 312.1748 14.74255519438273
LINGQIAO VIDEO A        
1 40959U 15057B   23335.20937751  .00001612  00000+0  24858-3 0  9994
2 40959  97.6860   1.8336 0018743  47.5683 312.7108 14.74557161438369
LINGQIAO VIDEO B        
1 40960U 15057C   23335.11904049  .00001614  00000+0  24827-3 0  9998
2 40960  97.6879   2.8291 0018876  48.1995 312.0823 14.74668660438388
JILIN-1                 
1 40961U 15057D   23335.14800971  .00001638  00000+0  24836-3 0  9997
2 40961  97.6932   5.4188 0018757  45.5436 314.7305 14.75284229438483
ELEKTRO-L 2             
1 41105U 15074A   23335.17755312 -.00000108  00000+0  00000+0 0  9993
2 41105   4.3333  81.8358 0003777 176.1122 221.2552  1.00271448 29205
TELEOS-1                
1 41169U 15077D   23334.14480701  .00020824  00000+0  81733-3 0  9991
2 41169  14.9793 228.8964 0007802 287.4577  72.4892 15.23252017440235
GALASSIA                
1 41170U 15077E   23333.32328671  .00466473  00000+0  22411-2 0  9990
2 41170  14.9846  28.6676 0001567 115.4695 244.5797 15.80090697441767
VELOX-II                
1 41171U 15077F   23332.83241014  .00049475  00000+0  12656-2 0  9990
2 41171  14.9890 174.0985 0005255  16.8915 343.1584 15.37497100440483
DAMPE                   
1 41173U 15078A   23335.20481469  .00002716  00000+0  10747-3 0  9994
2 41173  97.4185 324.8667 0014635 121.1907 239.0768 15.26225439442620
ORBCOMM FM114           
1 41179U 15081A   23334.41416234  .00002504  00000+0  59946-3 0  9993
2 41179  47.0026  69.7841 0002636 266.1419  93.9165 14.56120704422151
ORBCOMM FM110           
1 41182U 15081D   23333.43055269  .00001918  00000+0  46804-3 0  9992
2 41182  47.0020  73.8360 0000848 138.1901 221.9048 14.56109625421834
ORBCOMM FM112           
1 41184U 15081F   23334.42859219  .00002460  00000+0  59003-3 0  9999
2 41184  46.9996 338.1598 0002334 309.0546  51.0131 14.56100282423356
ORBCOMM FM113           
1 41185U 15081G   23334.06185657  .00001816  00000+0  44552-3 0  9995
2 41185  47.0025 340.1166 0001733 319.0720  41.0034 14.56078124423308
ORBCOMM FM108           
1 41187U 15081J   23334.90772186  .00002316  00000+0  55768-3 0  9996
2 41187  47.0040 247.2793 0002684 252.2389 107.8203 14.56094892424585
ORBCOMM FM117           
1 41188U 15081K   23333.15808389  .00002296  00000+0  55340-3 0  9991
2 41188  47.0004 254.4637 0003361 257.1453 102.9057 14.56085394424290
ORBCOMM FM116           
1 41189U 15081L   23334.93163000  .00002129  00000+0  51567-3 0  9995
2 41189  47.0025 335.9230 0002734 327.5454  32.5262 14.56105825423437
CHUBUSAT-2              
1 41338U 16012B   23334.11018063  .00008129  00000+0  54202-3 0  9999
2 41338  31.0014 235.7930 0011809  30.9199 329.2131 15.05695895427398
CHUBUSAT-3              
1 41339U 16012C   23335.12303896  .00006366  00000+0  42663-3 0  9992
2 41339  31.0072 226.8413 0011823  47.7026 312.4611 15.05405275427535
HORYU-4                 
1 41340U 16012D   23333.98816977  .00015426  00000+0  89106-3 0  9995
2 41340  31.0015 194.5979 0010347 104.0485 256.1304 15.11093755427792
OUFTI-1                 
1 41458U 16025C   23334.59984947  .00119243  00000+0  16865-2 0  9993
2 41458  98.1525 198.1117 0062888 220.9737 138.6780 15.53777052418686
E-ST@R-II               
1 41459U 16025D   23335.15362287  .00080617  00000+0  15006-2 0  9992
2 41459  98.1587 194.8939 0075948 231.9247 127.5133 15.45388832418537
AIST-2D (RS-48)         
1 41465U 16026B   23335.21181318  .00078637  00000+0  61014-3 0  9991
2 41465  96.9648 204.5838 0004454 355.6044   4.5180 15.71565563426068
ZIYUAN 3-2 (ZY 3-2)     
1 41556U 16033A   23335.18410370  .00011702  00000+0  52581-3 0  9998
2 41556  97.4785  47.2468 0006311 152.8935 207.2631 15.21286411416742
CARTOSAT-2C             
1 41599U 16040A   23335.18146643  .00009719  00000+0  46387-3 0  9994
2 41599  97.4150  32.6622 0013375 124.0264 236.2243 15.19186102412660
LAPAN-A3                
1 41603U 16040E   23335.14385870  .00004396  00000+0  18616-3 0  9993
2 41603  97.1545 353.0014 0014312  87.0637 273.2238 15.23565796412907
BIROS                   
1 41604U 16040F   23334.65156255  .00015813  00000+0  50067-3 0  9994
2 41604  97.1454   4.4068 0011219  51.2825 308.9419 15.32765151413565
M3MSAT                  
1 41605U 16040G   23334.07442833  .00012671  00000+0  41165-3 0  9999
2 41605  97.1454   1.3283 0011512  68.1228 292.1237 15.31985011413314
GAOFEN-3                
1 41727U 16049A   23335.11221001  .00000206  00000+0  75769-4 0  9990
2 41727  98.4070 340.7090 0001743 109.5827 250.5551 14.42180883384727
QSS (MOZI)              
1 41731U 16051A   23335.23386531  .00011170  00000+0  34554-3 0  9999
2 41731  97.3159 243.5952 0009528 208.4651 151.6072 15.33612367406168
3CAT-2                  
1 41732U 16051B   23334.83791365  .00473712  92962-4  12021-2 0  9991
2 41732  97.3872 275.0826 0010566 117.9546 242.2800 15.95369232407561
PRATHAM                 
1 41783U 16059A   23334.50158175  .00001836  00000+0  35406-3 0  9999
2 41783  97.8539 358.1247 0031520 294.9171  64.8758 14.64335619383318
ALSAT 1N                
1 41789U 16059G   23335.13896369  .00001888  00000+0  35223-3 0  9993
2 41789  97.8502   4.4635 0026126 271.0427  88.7784 14.65880660383723
CAS-2T & KS-1Q          
1 41847U 16066G   23334.16748361  .00002046  00000+0  30784-3 0  9990
2 41847  98.4865  41.8408 0358188  59.2044 304.3888 14.40398947370696
YUNHAI 1                
1 41857U 16068A   23335.12509452  .00000654  00000+0  25453-3 0  9996
2 41857  98.5924 337.7867 0006384 226.0824 133.9833 14.33072903368773
RESOURCESAT-2A          
1 41877U 16074A   23335.18328259  .00000379  00000+0  19238-3 0  9993
2 41877  98.6684  47.4705 0000778 166.7620 193.3578 14.21664814362315
TANSAT                  
1 41898U 16081A   23335.16292003  .00001156  00000+0  26151-3 0  9995
2 41898  98.4452 297.5173 0019988 300.7503  59.1726 14.58023392369141
JILIN-1 03              
1 41914U 17002B   23335.22942869  .00009824  00000+0  51162-3 0  9997
2 41914  97.2332 356.1968 0008754 231.2642 128.7810 15.16167541379989
KAIDUN 1                
1 41915U 17002C   23335.20480298  .00015487  00000+0  66054-3 0  9997
2 41915  97.2265   5.0581 0006605 208.5460 151.5417 15.22989367380539
CARTOSAT-2D             
1 41948U 17008A   23334.42379261  .00009620  00000+0  45902-3 0  9990
2 41948  97.4558  31.6837 0004746 267.7805  92.2886 15.19270807376416
DIDO-2                  
1 42000U 17008BE  23335.11840263  .00045516  00000+0  81972-3 0  9993
2 42000  97.1779  29.3315 0005469 132.6809 227.4904 15.49658415377692
ZHUHAI-1 02 (CAS-4B)    
1 42759U 17034B   23335.19480417  .00017183  00000+0  76007-3 0  9994
2 42759  43.0138 264.8327 0009928 113.9897 246.1993 15.21375488357032
ZHUHAI-1 01 (CAS-4A)    
1 42761U 17034D   23335.20882081  .00017898  00000+0  78974-3 0  9990
2 42761  43.0136 263.2446 0010591 115.9461 244.2481 15.21431555357045
NIUSAT                  
1 42766U 17036B   23334.62994655  .00076465  00000+0  11891-2 0  9992
2 42766  97.1340   3.3890 0005647 193.3698 166.7408 15.53651741358315
CARTOSAT-2E             
1 42767U 17036C   23335.16379752  .00009064  00000+0  43193-3 0  9990
2 42767  97.4679  32.1959 0006353 332.2679  27.8216 15.19326584357092
AALTO-1                 
1 42775U 17036L   23334.61980202  .00038314  00000+0  82904-3 0  9999
2 42775  97.1333   0.5906 0006566 209.0760 151.0125 15.44351675358125
URSA MAIOR              
1 42776U 17036M   23334.65353133  .00050531  00000+0  95548-3 0  9994
2 42776  97.1331   2.6321 0006162 199.1018 161.0003 15.48233108358248
MAX VALIER SAT          
1 42778U 17036P   23334.63659408  .00053292  00000+0  94958-3 0  9999
2 42778  97.1322   6.4688 0005266 197.1886 162.9189 15.49927159358403
DIAMOND RED             
1 42783U 17036U   23334.81283450  .00079921  00000+0  11957-2 0  9999
2 42783  97.1267   7.0849 0004013 194.0128 166.1015 15.54713734358544
PEGASUS                 
1 42784U 17036V   23335.07098152  .00255122  00000+0  14376-2 0  9999
2 42784  97.1171  12.8570 0003430 157.7259 202.4158 15.78479019358966
DIAMOND GREEN           
1 42785U 17036W   23334.81067696  .00092012  00000+0  12195-2 0  9994
2 42785  97.1243   7.7047 0004186 186.6464 173.4738 15.57956527358576
DIAMOND BLUE            
1 42786U 17036X   23335.06928316  .00078045  00000+0  11101-2 0  9994
2 42786  97.1277   7.6884 0004595 184.0944 176.0274 15.56099102358593
D-SAT                   
1 42794U 17036AF  23333.95487022  .00006872  00000+0  51943-3 0  9991
2 42794  97.4787 318.6259 0114096 103.4028 257.9943 14.97546160350755
IRIDIUM 113             
1 42803U 17039A   23335.13299587  .00000614  00000+0  21234-3 0  9992
2 42803  86.3975 350.4100 0001970  97.7903 262.3517 14.34218258338022
NORSAT 2                
1 42828U 17042D   23335.06379071  .00008927  00000+0  76181-3 0  9998
2 42828  97.3796 166.6161 0012982  20.2590 339.9146 14.97852404347568
TECHNOSAT               
1 42829U 17042E   23335.07928100  .00005585  00000+0  51743-3 0  9997
2 42829  97.3794 162.6152 0013981  30.8628 329.3412 14.94782945347414
FLYING LAPTOP           
1 42831U 17042G   23334.52321575  .00004134  00000+0  39346-3 0  9996
2 42831  97.3806 162.2629 0013964  32.8368 327.3718 14.93853849347317
